{
  "type": "FeatureCollection",
  "features": [
    {
      "type": "Feature",
      "properties": {
        "norad_id": 30931,
        "name": "FENGYUN 1C DEB",
        "group": "fengyun-1c-debris",
        "lat": 43.57335464830754,
        "lon": -115.62376801700447,
        "alt_km": 923.1138922345017,
        "timestamp": "2025-12-23T22:42:33.264129+00:00",
        "meta_object_name": "FENGYUN 1C DEB",
        "meta_object_id": "1999-025AZV",
        "meta_epoch": "2025-12-23T03:21:07.405056",
        "meta_mean_motion": 14.01530945,
        "meta_eccentricity": 0.00927739,
        "meta_inclination": 99.171,
        "meta_ra_of_asc_node": 54.7247,
        "meta_arg_of_pericenter": 12.7703,
        "meta_mean_anomaly": 14.7615,
        "meta_ephemeris_type": 0,
        "meta_classification_type": "U",
        "meta_norad_cat_id": 30931,
        "meta_element_set_no": 999,
        "meta_rev_at_epoch": 96071,
        "meta_bstar": 0.00055466567,
        "meta_mean_motion_dot": 8.25e-06,
        "meta_mean_motion_ddot": 0,
        "tle_line1": "1 30931U 99025AZV 25357.13966904  .00000825  00000+0  55467-3 0  9995",
        "tle_line2": "2 30931  99.1710  54.7247 0092773  12.7703  14.7615 14.01530945960711"
      },
      "geometry": {
        "type": "Point",
        "coordinates": [
          -115.62376801700447,
          43.57335464830754
        ]
      }
    },
    {
      "type": "Feature",
      "properties": {
        "norad_id": 30932,
        "name": "FENGYUN 1C DEB",
        "group": "fengyun-1c-debris",
        "lat": 5.645110541887553,
        "lon": -69.83731187194142,
        "alt_km": 814.0216445354081,
        "timestamp": "2025-12-23T22:42:33.264139+00:00",
        "meta_object_name": "FENGYUN 1C DEB",
        "meta_object_id": "1999-025AZW",
        "meta_epoch": "2025-12-21T06:43:56.374176",
        "meta_mean_motion": 14.26904015,
        "meta_eccentricity": 0.00571492,
        "meta_inclination": 98.9092,
        "meta_ra_of_asc_node": 288.3376,
        "meta_arg_of_pericenter": 269.3371,
        "meta_mean_anomaly": 90.126,
        "meta_ephemeris_type": 0,
        "meta_classification_type": "U",
        "meta_norad_cat_id": 30932,
        "meta_element_set_no": 999,
        "meta_rev_at_epoch": 96516,
        "meta_bstar": 0.0018186282,
        "meta_mean_motion_dot": 4.449e-05,
        "meta_mean_motion_ddot": 0,
        "tle_line1": "1 30932U 99025AZW 25355.28051359  .00004449  00000+0  18186-2 0  9991",
        "tle_line2": "2 30932  98.9092 288.3376 0057149 269.3371  90.1260 14.26904015965167"
      },
      "geometry": {
        "type": "Point",
        "coordinates": [
          -69.83731187194142,
          5.645110541887553
        ]
      }
    },
    {
      "type": "Feature",
      "properties": {
        "norad_id": 30933,
        "name": "FENGYUN 1C DEB",
        "group": "fengyun-1c-debris",
        "lat": -61.65803408215766,
        "lon": -1.8145291036816624,
        "alt_km": 722.507063238716,
        "timestamp": "2025-12-23T22:42:33.264150+00:00",
        "meta_object_name": "FENGYUN 1C DEB",
        "meta_object_id": "1999-025AZX",
        "meta_epoch": "2025-12-22T19:08:52.155168",
        "meta_mean_motion": 14.36749826,
        "meta_eccentricity": 0.00757355,
        "meta_inclination": 99.0485,
        "meta_ra_of_asc_node": 339.7954,
        "meta_arg_of_pericenter": 293.7838,
        "meta_mean_anomaly": 186.614,
        "meta_ephemeris_type": 0,
        "meta_classification_type": "U",
        "meta_norad_cat_id": 30933,
        "meta_element_set_no": 999,
        "meta_rev_at_epoch": 96016,
        "meta_bstar": 0.0047572673,
        "meta_mean_motion_dot": 0.00014481,
        "meta_mean_motion_ddot": 0,
        "tle_line1": "1 30933U 99025AZX 25356.79782587  .00014481  00000+0  47573-2 0  9992",
        "tle_line2": "2 30933  99.0485 339.7954 0075735 293.7838 186.6140 14.36749826960160"
      },
      "geometry": {
        "type": "Point",
        "coordinates": [
          -1.8145291036816624,
          -61.65803408215766
        ]
      }
    },
    {
      "type": "Feature",
      "properties": {
        "norad_id": 30934,
        "name": "FENGYUN 1C DEB",
        "group": "fengyun-1c-debris",
        "lat": -35.71204965103552,
        "lon": 47.20279473717728,
        "alt_km": 1333.2131067834425,
        "timestamp": "2025-12-23T22:42:33.264161+00:00",
        "meta_object_name": "FENGYUN 1C DEB",
        "meta_object_id": "1999-025AZY",
        "meta_epoch": "2025-12-22T08:13:08.440320",
        "meta_mean_motion": 13.46777047,
        "meta_eccentricity": 0.03411921,
        "meta_inclination": 98.7655,
        "meta_ra_of_asc_node": 232.1637,
        "meta_arg_of_pericenter": 57.0731,
        "meta_mean_anomaly": 306.2738,
        "meta_ephemeris_type": 0,
        "meta_classification_type": "U",
        "meta_norad_cat_id": 30934,
        "meta_element_set_no": 999,
        "meta_rev_at_epoch": 91837,
        "meta_bstar": 0.0020962179,
        "meta_mean_motion_dot": 1.772e-05,
        "meta_mean_motion_ddot": 0,
        "tle_line1": "1 30934U 99025AZY 25356.34245880  .00001772  00000+0  20962-2 0  9996",
        "tle_line2": "2 30934  98.7655 232.1637 0341192  57.0731 306.2738 13.46777047918371"
      },
      "geometry": {
        "type": "Point",
        "coordinates": [
          47.20279473717728,
          -35.71204965103552
        ]
      }
    },
    {
      "type": "Feature",
      "properties": {
        "norad_id": 30936,
        "name": "FENGYUN 1C DEB",
        "group": "fengyun-1c-debris",
        "lat": 80.45305347646554,
        "lon": -87.66575624809778,
        "alt_km": 838.1865841756053,
        "timestamp": "2025-12-23T22:42:33.264171+00:00",
        "meta_object_name": "FENGYUN 1C DEB",
        "meta_object_id": "1999-025BAA",
        "meta_epoch": "2025-12-23T00:38:38.645088",
        "meta_mean_motion": 14.23395737,
        "meta_eccentricity": 0.00460549,
        "meta_inclination": 98.5808,
        "meta_ra_of_asc_node": 27.5729,
        "meta_arg_of_pericenter": 260.2187,
        "meta_mean_anomaly": 165.664,
        "meta_ephemeris_type": 0,
        "meta_classification_type": "U",
        "meta_norad_cat_id": 30936,
        "meta_element_set_no": 999,
        "meta_rev_at_epoch": 97279,
        "meta_bstar": 0.00045595019,
        "meta_mean_motion_dot": 1.003e-05,
        "meta_mean_motion_ddot": 0,
        "tle_line1": "1 30936U 99025BAA 25357.02683617  .00001003  00000+0  45595-3 0  9995",
        "tle_line2": "2 30936  98.5808  27.5729 0046054 260.2187 165.6640 14.23395737972794"
      },
      "geometry": {
        "type": "Point",
        "coordinates": [
          -87.66575624809778,
          80.45305347646554
        ]
      }
    },
    {
      "type": "Feature",
      "properties": {
        "norad_id": 30937,
        "name": "FENGYUN 1C DEB",
        "group": "fengyun-1c-debris",
        "lat": -63.556061806356105,
        "lon": -148.62126440366046,
        "alt_km": 956.7194637770444,
        "timestamp": "2025-12-23T22:42:33.264181+00:00",
        "meta_object_name": "FENGYUN 1C DEB",
        "meta_object_id": "1999-025BAB",
        "meta_epoch": "2025-12-23T02:44:58.507584",
        "meta_mean_motion": 13.95588532,
        "meta_eccentricity": 0.00753595,
        "meta_inclination": 99.0875,
        "meta_ra_of_asc_node": 49.3306,
        "meta_arg_of_pericenter": 25.0121,
        "meta_mean_anomaly": 4.5351,
        "meta_ephemeris_type": 0,
        "meta_classification_type": "U",
        "meta_norad_cat_id": 30937,
        "meta_element_set_no": 999,
        "meta_rev_at_epoch": 95861,
        "meta_bstar": -1.2794347e-05,
        "meta_mean_motion_dot": -6.2e-07,
        "meta_mean_motion_ddot": 0,
        "tle_line1": "1 30937U 99025BAB 25357.11456606 -.00000062  00000+0 -12794-4 0  9994",
        "tle_line2": "2 30937  99.0875  49.3306 0075359  25.0121   4.5351 13.95588532958613"
      },
      "geometry": {
        "type": "Point",
        "coordinates": [
          -148.62126440366046,
          -63.556061806356105
        ]
      }
    },
    {
      "type": "Feature",
      "properties": {
        "norad_id": 30938,
        "name": "FENGYUN 1C DEB",
        "group": "fengyun-1c-debris",
        "lat": -42.921548395818654,
        "lon": -176.97266330175276,
        "alt_km": 830.9905433503782,
        "timestamp": "2025-12-23T22:42:33.264192+00:00",
        "meta_object_name": "FENGYUN 1C DEB",
        "meta_object_id": "1999-025BAC",
        "meta_epoch": "2025-12-22T12:32:48.222240",
        "meta_mean_motion": 14.19833516,
        "meta_eccentricity": 0.00454626,
        "meta_inclination": 98.5904,
        "meta_ra_of_asc_node": 9.727,
        "meta_arg_of_pericenter": 315.154,
        "meta_mean_anomaly": 197.1516,
        "meta_ephemeris_type": 0,
        "meta_classification_type": "U",
        "meta_norad_cat_id": 30938,
        "meta_element_set_no": 999,
        "meta_rev_at_epoch": 97258,
        "meta_bstar": 0.00032116856,
        "meta_mean_motion_dot": 6.45e-06,
        "meta_mean_motion_ddot": 0,
        "tle_line1": "1 30938U 99025BAC 25356.52278035  .00000645  00000+0  32117-3 0  9992",
        "tle_line2": "2 30938  98.5904   9.7270 0045462 315.1540 197.1516 14.19833516972587"
      },
      "geometry": {
        "type": "Point",
        "coordinates": [
          -176.97266330175276,
          -42.921548395818654
        ]
      }
    }
  ]
}